satname,norad_id,inclination_deg,eccentricity,mean_motion_rev_per_day,perigee_km,apogee_km,l1,l2
STARLINK-1134,45048,53.0473,0.0006647,15.22901697,492.52350173836385,501.6634331217647,1 45048U 20006E   25257.49771520  .00024889  00000+0  10579-2 0  9999,2 45048  53.0473 342.1559 0006647 348.4185  11.6657 15.22901697310125
STARLINK-1156,45054,53.0563,0.0001139,15.06408858,546.3956154685447,547.9732036856458,1 45054U 20006L   25257.51519471  .00002265  00000+0  17083-3 0  9996,2 45054  53.0563 357.4986 0001139  82.4212 277.6906 15.06408858309900
STARLINK-1159,45057,53.0581,0.0001444,15.06395263,546.2260537708662,548.2260986272722,1 45057U 20006P   25257.59630429 -.00000191  00000+0  60544-5 0  9993,2 45057  53.0581 357.1349 0001444  95.4132 264.7022 15.06395263309920
STARLINK-1166,45060,53.0557,0.0001063,15.06411961,546.4387387836268,547.9110600934464,1 45060U 20006S   25257.54099458  .00007793  00000+0  54130-3 0  9999,2 45060  53.0557 357.3841 0001063  77.2070 282.9038 15.06411961309914
STARLINK-1169,45061,53.0567,0.0001338,15.06408216,546.2597689281774,548.1129854639148,1 45061U 20006T   25257.54837158  .00002296  00000+0  17295-3 0  9991,2 45061  53.0567 357.3505 0001338  85.2634 274.8508 15.06408216309914
STARLINK-1171,45062,53.0564,0.0001159,15.06413318,546.3680973200189,547.9733836542637,1 45062U 20006U   25257.59996715  .00000027  00000+0  20711-4 0  9990,2 45062  53.0564 357.1155 0001159  93.6481 266.4640 15.06413318309929
STARLINK-1133,45064,53.0555,0.0001299,15.06419812,546.2512427871015,548.0504325673301,1 45064U 20006W   25257.54653191  .00006906  00000+0  48181-3 0  9997,2 45064  53.0555 337.3544 0001299  87.9841 272.1297 15.06419812310192
STARLINK-1150,45067,53.0427,0.0004075,15.92048392,293.83150102630316,299.27137210210185,1 45067U 20006Z   25257.58335648  .00314596  48486-4  93245-3 0  9991,2 45067  53.0427 287.0786 0004075 347.4076 302.0997 15.92048392  6054
STARLINK-1167,45071,53.056,0.0001416,15.06413358,546.1899943360177,548.1512414534063,1 45071U 20006AD  25257.50598346  .00005211  00000+0  36832-3 0  9999,2 45071  53.0560 337.5415 0001416  92.7456 267.3695 15.06413358310188
STARLINK-1168,45072,53.0555,0.0001299,15.06415908,546.263206194144,548.062399082869,1 45072U 20006AE  25257.50966748  .00002884  00000+0  21231-3 0  9995,2 45072  53.0555 337.5244 0001299  92.5129 267.6009 15.06415908310182
STARLINK-1172,45074,53.0563,0.0001275,15.06405998,546.3101953958321,548.0761545904561,1 45074U 20006AG  25257.52072674  .00001512  00000+0  12038-3 0  9997,2 45074  53.0563 337.4744 0001275  94.2648 265.8487 15.06405998310184
STARLINK-1153,45080,53.0541,0.0001297,15.06422188,546.2453468605336,548.0417646366941,1 45080U 20006AN  25257.49861770  .00003736  00000+0  26943-3 0  9993,2 45080  53.0541 337.5750 0001297  83.7617 276.3519 15.06422188310181
STARLINK-1151,45081,53.0555,0.0001229,15.06410646,546.3278083459836,548.0300510014977,1 45081U 20006AP  25257.55022618  .00004424  00000+0  31561-3 0  9998,2 45081  53.0555 337.4159 0001229  88.8880 271.2250 15.06410646310195
STARLINK-1190,45083,53.0507,0.000772,15.7187894,348.3303675338575,358.72405707765756,1 45083U 20006AR  25257.45119449  .00076308  00000+0  57355-3 0  9997,2 45083  53.0507 313.2693 0007720  10.3669 349.7507 15.71878940310526
STARLINK-1173,45084,53.0464,0.001008,15.79450529,325.23261701861793,338.76024601655627,1 45084U 20006AS  25257.58335648  .00179279  00000+0  95015-3 0  9999,2 45084  53.0464 276.9535 0010080 348.7052  66.0128 15.79450529  6039
STARLINK-1179,45085,53.0406,0.0005546,15.90762312,296.44468835906173,303.8522425973697,1 45085U 20006AT  25257.58335648  .00266672  37365-4  84565-3 0  9991,2 45085  53.0406 268.1610 0005546 359.8666  92.7656 15.90762312  6051
STARLINK-1185,45087,53.0568,0.0001234,15.06425214,546.2797032614599,547.9888602137935,1 45087U 20006AV  25257.45989169  .00003004  00000+0  22035-3 0  9995,2 45087  53.0568 317.7457 0001234  83.7081 276.4049 15.06425214310460
STARLINK-1183,45088,53.055,0.0001122,15.06412575,546.3959978585326,547.9500374264908,1 45088U 20006AW  25257.48202859  .00004093  00000+0  29338-3 0  9995,2 45088  53.0550 317.6465 0001122  65.3010 294.8096 15.06412575310466
STARLINK-1176,45090,53.0497,0.0005845,15.77064655,334.83634876300766,342.6884041340754,1 45090U 20006AY  25257.58335648  .00133987  00000+0  79711-3 0  9997,2 45090  53.0497 274.5546 0005845 328.2719 301.5461 15.77064655  5972
STARLINK-1142,45093,53.039,0.0006267,15.491632,414.9128621759528,423.43261019928923,1 45093U 20006BB  25257.46358391  .00046784  00000+0  84793-3 0  9991,2 45093  53.0390 267.1753 0006267  33.1508 326.9891 15.49163200311177
STARLINK-1146,45094,53.0469,0.0005728,15.91793318,293.4407963643762,301.0881362841983,1 45094U 20006BC  25257.58335648  .00307394  46642-4  92277-3 0  9995,2 45094  53.0469 269.2877 0005728 350.7651  43.9956 15.91793318  6044
STARLINK-1147,45095,53.042,0.0009909,15.88490702,299.889952082297,313.13759298330206,1 45095U 20006BD  25257.58335648  .00188666  00000+0  64967-3 0  9993,2 45095  53.0420 271.9419 0009909 356.5912 100.5115 15.88490702  6058
STARLINK-1152,45096,53.0493,0.000464,15.20376244,501.5112202381579,507.898497483181,1 45096U 20006BE  25257.12028254  .00024015  00000+0  11000-2 0  9992,2 45096  53.0493 306.7405 0004640  30.3875 329.7388 15.20376244310586
STARLINK-1184,45098,53.0548,0.0001234,15.06407301,546.3345962643916,548.0437667659899,1 45098U 20006BG  25257.43042541  .00003249  00000+0  23689-3 0  9996,2 45098  53.0548 317.8768 0001234  81.1324 278.9805 15.06407301310451
STARLINK-1193,45100,53.0549,0.0001214,15.06384725,546.4176310104685,548.0991170072793,1 45100U 20006BJ  25257.42675874 -.00001838  00000+0 -10461-3 0  9998,2 45100  53.0549 317.8939 0001214  87.5846 272.5282 15.06384725310456
STARLINK-1143,45179,53.0545,0.0004826,15.32594677,464.7703255646029,471.37828871825513,1 45179U 20012B   25256.84336236  .00043657  00000+0  13711-2 0  9995,2 45179  53.0545  94.3495 0004826 133.5801 226.5601 15.32594677308557
STARLINK-1201,45182,53.0371,0.0002651,16.04149578,261.1807454883683,264.70184520056046,1 45182U 20012E   25257.58257066  .00449123  10345-3  67424-3 0  9990,2 45182  53.0371  43.1715 0002651 352.3146   7.7844 16.04149578309175
STARLINK-1202,45183,53.0538,0.0001157,15.06381165,546.4680155948381,548.0705546092113,1 45183U 20012F   25257.35672404 -.00000315  00000+0 -22400-5 0  9991,2 45183  53.0538 118.2098 0001157  97.5340 262.5781 15.06381165308264
STARLINK-1216,45185,53.053,0.000116,15.0640071,546.4060417110913,548.0127220716904,1 45185U 20012H   25257.34934538  .00001999  00000+0  15306-3 0  9993,2 45185  53.0530 118.2400 0001160  94.5651 265.5470 15.06400710308201
STARLINK-1224,45186,53.036,0.0001175,16.05180031,259.31881713651364,260.878802551827,1 45186U 20012J   25255.21080931  .00506019  13164-3  71336-3 0  9994,2 45186  53.0360  76.5993 0001175   9.5728 350.5326 16.05180031308591
STARLINK-1225,45187,53.0526,0.0001401,15.06411953,546.2046877565153,548.1451601576091,1 45187U 20012K   25257.03605032  .00005529  00000+0  38965-3 0  9994,2 45187  53.0526 119.6489 0001401 102.0104 258.1042 15.06411953308200
STARLINK-1228,45188,53.024,0.0004413,16.34499271,177.58191047450327,183.37054250820438,1 45188U 20012L   25257.74499140  .06009152  12260-4  81726-3 0  9995,2 45188  53.0240 359.8768 0004413 329.9343  30.1447 16.34499271309897
STARLINK-1230,45189,53.0544,0.0001465,15.06397987,546.2031630326437,548.2322919678027,1 45189U 20012M   25257.30511037  .00000050  00000+0  22257-4 0  9999,2 45189  53.0544 118.4405 0001465  87.0077 273.1080 15.06397987305473
STARLINK-1234,45190,53.0546,0.0001383,15.06398092,546.2596291753407,548.1751822039541,1 45190U 20012N   25256.79276390  .00000391  00000+0  45139-4 0  9995,2 45190  53.0546  80.7388 0001383  89.8503 270.2644 15.06398092308634
STARLINK-1237,45192,53.0438,0.0004523,16.14433912,231.71676140093405,237.698740762763,1 45192U 20012Q   25255.18850230  .00842754  44366-3  64746-3 0  9998,2 45192  53.0438  75.1521 0004523 284.0814  75.9719 16.14433912308674
STARLINK-1240,45194,53.0389,0.0001856,15.97425643,280.32809789086514,282.80017895344736,1 45194U 20012S   25257.58335648  .00347628  60390-4  77180-3 0  9999,2 45194  53.0389  65.3396 0001856  68.0158 298.5794 15.97425643  6065
STARLINK-1244,45196,53.0368,5.09e-05,16.01584129,269.69288494557713,270.3696684761462,1 45196U 20012U   25256.77765170  .00389217  77099-4  68150-3 0  9999,2 45196  53.0368  68.9883 0000509 343.5874  16.5140 16.01584129308940
STARLINK-1269,45197,53.0551,0.0001412,15.06397949,546.2399838610436,548.1957040689795,1 45197U 20012V   25257.31617084 -.00000565  00000+0 -19058-4 0  9996,2 45197  53.0551 118.3938 0001412  96.3896 263.7254 15.06397949308226
STARLINK-1154,45198,53.0546,0.0001463,15.06406021,546.1799287076365,548.2062802962137,1 45198U 20012W   25256.84252042  .00001476  00000+0  11794-3 0  9991,2 45198  53.0546 100.5167 0001463  89.8218 270.2939 15.06406021308404
STARLINK-1199,45201,53.0551,0.0001351,15.064018,546.2704273581512,548.1416550478843,1 45201U 20012Z   25257.25166436 -.00000831  00000+0 -36900-4 0  9996,2 45201  53.0551  98.6808 0001351  89.0946 271.0198 15.06401800308529
STARLINK-1206,45204,53.0387,0.000124,15.98128844,278.7848545807992,280.43597593978484,1 45204U 20012AC  25257.58335648  .01381112  10117-2  29687-2 0  9996,2 45204  53.0387  46.2054 0001240  45.6575 248.2067 15.98128844  5962
STARLINK-1208,45205,53.0389,0.0002306,15.92872673,292.7099038059496,295.7872080243378,1 45205U 20012AD  25257.58335648  .00287063  42460-4  81621-3 0  9991,2 45205  53.0389  47.2695 0002306 104.5664 294.5751 15.92872673  5903
STARLINK-1209,45206,53.0549,0.0001299,15.06394581,546.3285615074656,548.1277713777063,1 45206U 20012AE  25257.19455036  .00002186  00000+0  16563-3 0  9996,2 45206  53.0549  78.9383 0001299  97.0680 263.0456 15.06394581307844
